{
    "links": {
        "self": "http://www.neowsapp.com/rest/v1/neo/3686284?api_key=iIulBulltgU6a56xZRHN4H3l9WmuAYTsLGpBGhQ2"
    },
    "id": "3686284",
    "neo_reference_id": "3686284",
    "name": "(2014 QQ434)",
    "designation": "2014 QQ434",
    "nasa_jpl_url": "http://ssd.jpl.nasa.gov/sbdb.cgi?sstr=3686284",
    "absolute_magnitude_h": 20.0,
    "estimated_diameter": {
        "kilometers": {
            "estimated_diameter_min": 0.2658,
            "estimated_diameter_max": 0.5943468684
        },
        "meters": {
            "estimated_diameter_min": 265.8,
            "estimated_diameter_max": 594.3468684194
        },
        "miles": {
            "estimated_diameter_min": 0.1651604118,
            "estimated_diameter_max": 0.369309908
        },
        "feet": {
            "estimated_diameter_min": 872.047272,
            "estimated_diameter_max": 1949.9569797852
        }
    },
    "is_potentially_hazardous_asteroid": false,
    "close_approach_data": [
        {
            "close_approach_date": "2014-10-31",
            "close_approach_date_full": "2014-Oct-31 01:44",
            "epoch_date_close_approach": 1414719840000,
            "relative_velocity": {
                "kilometers_per_second": "16.5729800931",
                "kilometers_per_hour": "59662.7283352712",
                "miles_per_hour": "37072.0991703245"
            },
            "miss_distance": {
                "astronomical": "0.2323245915",
                "lunar": "90.3742660935",
                "kilometers": "34755264.037020105",
                "miles": "21595919.656503249"
            },
            "orbiting_body": "Earth"
        }
    ],
    "orbital_data": {
        "orbit_id": "3",
        "orbit_determination_date": "2017-04-06 08:38:49",
        "first_observation_date": "2014-08-31",
        "last_observation_date": "2014-09-12",
        "data_arc_in_days": 12,
        "observations_used": 17,
        "orbit_uncertainty": "9",
        "minimum_orbit_intersection": ".183201",
        "jupiter_tisserand_invariant": "3.143",
        "epoch_osculation": "2456903.5",
        "eccentricity": ".6811243585952238",
        "semi_major_axis": "2.388261658193589",
        "inclination": "13.50977967566289",
        "ascending_node_longitude": "226.6294991324317",
        "orbital_period": "1348.097447775542",
        "perihelion_distance": ".7615584680989151",
        "perihelion_argument": "176.1482979726517",
        "aphelion_distance": "4.014964848288264",
        "perihelion_time": "2456964.374142634156",
        "mean_anomaly": "343.7439857300694",
        "mean_motion": ".2670430098313931",
        "equinox": "J2000",
        "orbit_class": {
            "orbit_class_type": "APO",
            "orbit_class_description": "Near-Earth asteroid orbits which cross the Earth’s orbit similar to that of 1862 Apollo",
            "orbit_class_range": "a (semi-major axis) > 1.0 AU; q (perihelion) < 1.017 AU"
        }
    },
    "is_sentry_object": false
}